CBERS 4                 
1 40336U 14079A   21019.12859477 -.00000001  00000-0  14885-4 0  9995
2 40336  98.5405  94.8886 0001311 113.4032 246.7296 14.35423676320622
CZ-4B R/B               
1 40337U 14079B   21018.73617828  .00000431  00000-0  40419-4 0  9992
2 40337  98.4399 285.0183 0175811 330.1681  28.9600 14.89525935332423
